{
  "type": "FeatureCollection",
  "features": [
    {
      "type": "Feature",
      "properties": {
        "norad_id": 36744,
        "name": "COMS 1",
        "group": "weather",
        "lat": 4.158319903052489,
        "lon": -173.9131142838332,
        "alt_km": 35786.47333827403,
        "timestamp": "2025-12-27T21:25:02.142347+00:00",
        "meta_object_name": "COMS 1",
        "meta_object_id": "2010-032A",
        "meta_epoch": "2025-12-27T12:34:15.492288",
        "meta_mean_motion": 1.00271645,
        "meta_eccentricity": 0.0001029,
        "meta_inclination": 4.3739,
        "meta_ra_of_asc_node": 77.8257,
        "meta_arg_of_pericenter": 209.3698,
        "meta_mean_anomaly": 125.7984,
        "meta_ephemeris_type": 0,
        "meta_classification_type": "U",
        "meta_norad_cat_id": 36744,
        "meta_element_set_no": 999,
        "meta_rev_at_epoch": 4936,
        "meta_bstar": 0,
        "meta_mean_motion_dot": -3.24e-06,
        "meta_mean_motion_ddot": 0,
        "tle_line1": "1 36744U 10032A   25361.52379042 -.00000324  00000+0  00000+0 0  9997",
        "tle_line2": "2 36744   4.3739  77.8257 0001029 209.3698 125.7984  1.00271645 49361"
      },
      "geometry": {
        "type": "Point",
        "coordinates": [
          -173.9131142838332,
          4.158319903052489
        ]
      }
    },
    {
      "type": "Feature",
      "properties": {
        "norad_id": 37214,
        "name": "FENGYUN 3B",
        "group": "weather",
        "lat": 50.92008763156873,
        "lon": -126.7867236826384,
        "alt_km": 853.6468434365634,
        "timestamp": "2025-12-27T21:25:02.142360+00:00",
        "meta_object_name": "FENGYUN 3B",
        "meta_object_id": "2010-059A",
        "meta_epoch": "2025-12-27T13:05:13.805088",
        "meta_mean_motion": 14.14795318,
        "meta_eccentricity": 0.0021421,
        "meta_inclination": 98.9888,
        "meta_ra_of_asc_node": 41.6245,
        "meta_arg_of_pericenter": 315.2312,
        "meta_mean_anomaly": 206.0452,
        "meta_ephemeris_type": 0,
        "meta_classification_type": "U",
        "meta_norad_cat_id": 37214,
        "meta_element_set_no": 999,
        "meta_rev_at_epoch": 78315,
        "meta_bstar": 0.00020128,
        "meta_mean_motion_dot": 3.43e-06,
        "meta_mean_motion_ddot": 0,
        "tle_line1": "1 37214U 10059A   25361.54529867  .00000343  00000+0  20128-3 0  9990",
        "tle_line2": "2 37214  98.9888  41.6245 0021421 315.2312 206.0452 14.14795318783154"
      },
      "geometry": {
        "type": "Point",
        "coordinates": [
          -126.7867236826384,
          50.92008763156873
        ]
      }
    },
    {
      "type": "Feature",
      "properties": {
        "norad_id": 37849,
        "name": "SUOMI NPP",
        "group": "weather",
        "lat": -45.41117841296056,
        "lon": 110.07942870538177,
        "alt_km": 834.9241090951646,
        "timestamp": "2025-12-27T21:25:02.142371+00:00",
        "meta_object_name": "SUOMI NPP",
        "meta_object_id": "2011-061A",
        "meta_epoch": "2025-12-26T22:21:51.604992",
        "meta_mean_motion": 14.19518423,
        "meta_eccentricity": 0.00025484,
        "meta_inclination": 98.7791,
        "meta_ra_of_asc_node": 298.1468,
        "meta_arg_of_pericenter": 95.8793,
        "meta_mean_anomaly": 264.2673,
        "meta_ephemeris_type": 0,
        "meta_classification_type": "U",
        "meta_norad_cat_id": 37849,
        "meta_element_set_no": 999,
        "meta_rev_at_epoch": 73400,
        "meta_bstar": 8.5991589e-05,
        "meta_mean_motion_dot": 1.37e-06,
        "meta_mean_motion_ddot": 0,
        "tle_line1": "1 37849U 11061A   25360.93184728  .00000137  00000+0  85992-4 0  9995",
        "tle_line2": "2 37849  98.7791 298.1468 0002548  95.8793 264.2673 14.19518423734004"
      },
      "geometry": {
        "type": "Point",
        "coordinates": [
          110.07942870538177,
          -45.41117841296056
        ]
      }
    },
    {
      "type": "Feature",
      "properties": {
        "norad_id": 38552,
        "name": "METEOSAT-10 (MSG-3)",
        "group": "weather",
        "lat": -0.252422689730744,
        "lon": 58.13218573419064,
        "alt_km": 35787.79997932827,
        "timestamp": "2025-12-27T21:25:02.142384+00:00",
        "meta_object_name": "METEOSAT-10 (MSG-3)",
        "meta_object_id": "2012-035B",
        "meta_epoch": "2025-12-26T23:18:23.522112",
        "meta_mean_motion": 1.0026664,
        "meta_eccentricity": 0.0001553,
        "meta_inclination": 4.2601,
        "meta_ra_of_asc_node": 61.6826,
        "meta_arg_of_pericenter": 264.1949,
        "meta_mean_anomaly": 119.6815,
        "meta_ephemeris_type": 0,
        "meta_classification_type": "U",
        "meta_norad_cat_id": 38552,
        "meta_element_set_no": 999,
        "meta_rev_at_epoch": 4913,
        "meta_bstar": 0,
        "meta_mean_motion_dot": 1.4e-07,
        "meta_mean_motion_ddot": 0,
        "tle_line1": "1 38552U 12035B   25360.97110558  .00000014  00000+0  00000+0 0  9999",
        "tle_line2": "2 38552   4.2601  61.6826 0001553 264.1949 119.6815  1.00266640 49139"
      },
      "geometry": {
        "type": "Point",
        "coordinates": [
          58.13218573419064,
          -0.252422689730744
        ]
      }
    },
    {
      "type": "Feature",
      "properties": {
        "norad_id": 38771,
        "name": "METOP-B",
        "group": "weather",
        "lat": -1.4637747260383178,
        "lon": -128.63092279082906,
        "alt_km": 822.817934141709,
        "timestamp": "2025-12-27T21:25:02.142395+00:00",
        "meta_object_name": "METOP-B",
        "meta_object_id": "2012-049A",
        "meta_epoch": "2025-12-27T10:25:50.018016",
        "meta_mean_motion": 14.2141394,
        "meta_eccentricity": 0.0003319,
        "meta_inclination": 98.6779,
        "meta_ra_of_asc_node": 51.1428,
        "meta_arg_of_pericenter": 113.835,
        "meta_mean_anomaly": 246.3175,
        "meta_ephemeris_type": 0,
        "meta_classification_type": "U",
        "meta_norad_cat_id": 38771,
        "meta_element_set_no": 999,
        "meta_rev_at_epoch": 68886,
        "meta_bstar": 8.6292e-05,
        "meta_mean_motion_dot": 1.45e-06,
        "meta_mean_motion_ddot": 0,
        "tle_line1": "1 38771U 12049A   25361.43460669  .00000145  00000+0  86292-4 0  9997",
        "tle_line2": "2 38771  98.6779  51.1428 0003319 113.8350 246.3175 14.21413940688865"
      },
      "geometry": {
        "type": "Point",
        "coordinates": [
          -128.63092279082906,
          -1.4637747260383178
        ]
      }
    },
    {
      "type": "Feature",
      "properties": {
        "norad_id": 39216,
        "name": "INSAT-3D",
        "group": "weather",
        "lat": 1.4468346415882403,
        "lon": -172.58698973094457,
        "alt_km": 35781.109052422646,
        "timestamp": "2025-12-27T21:25:02.142408+00:00",
        "meta_object_name": "INSAT-3D",
        "meta_object_id": "2013-038B",
        "meta_epoch": "2025-12-27T10:11:36.454272",
        "meta_mean_motion": 1.00272777,
        "meta_eccentricity": 0.0001994,
        "meta_inclination": 1.4809,
        "meta_ra_of_asc_node": 84.8274,
        "meta_arg_of_pericenter": 159.495,
        "meta_mean_anomaly": 134.2917,
        "meta_ephemeris_type": 0,
        "meta_classification_type": "U",
        "meta_norad_cat_id": 39216,
        "meta_element_set_no": 999,
        "meta_rev_at_epoch": 4535,
        "meta_bstar": 0,
        "meta_mean_motion_dot": -3.17e-06,
        "meta_mean_motion_ddot": 0,
        "tle_line1": "1 39216U 13038B   25361.42472748 -.00000317  00000+0  00000+0 0  9991",
        "tle_line2": "2 39216   1.4809  84.8274 0001994 159.4950 134.2917  1.00272777 45351"
      },
      "geometry": {
        "type": "Point",
        "coordinates": [
          -172.58698973094457,
          1.4468346415882403
        ]
      }
    },
    {
      "type": "Feature",
      "properties": {
        "norad_id": 39260,
        "name": "FENGYUN 3C",
        "group": "weather",
        "lat": 61.969091459304174,
        "lon": 175.1025064842607,
        "alt_km": 825.0164083197024,
        "timestamp": "2025-12-27T21:25:02.142419+00:00",
        "meta_object_name": "FENGYUN 3C",
        "meta_object_id": "2013-052A",
        "meta_epoch": "2025-12-27T12:23:10.905216",
        "meta_mean_motion": 14.15700832,
        "meta_eccentricity": 0.0015101,
        "meta_inclination": 98.4781,
        "meta_ra_of_asc_node": 338.4751,
        "meta_arg_of_pericenter": 153.6212,
        "meta_mean_anomaly": 206.5734,
        "meta_ephemeris_type": 0,
        "meta_classification_type": "U",
        "meta_norad_cat_id": 39260,
        "meta_element_set_no": 999,
        "meta_rev_at_epoch": 63427,
        "meta_bstar": 8.4727e-05,
        "meta_mean_motion_dot": 1.25e-06,
        "meta_mean_motion_ddot": 0,
        "tle_line1": "1 39260U 13052A   25361.51609844  .00000125  00000+0  84727-4 0  9994",
        "tle_line2": "2 39260  98.4781 338.4751 0015101 153.6212 206.5734 14.15700832634278"
      },
      "geometry": {
        "type": "Point",
        "coordinates": [
          175.1025064842607,
          61.969091459304174
        ]
      }
    }
  ]
}